STARLINK-3864           
1 52468U 22049T   22152.25001157 -.00084831  00000+0 -60368-3 0  9996
2 52468  53.2151 138.4016 0001995  31.0785 290.7474 15.73291159  4230
STARLINK-3828           
1 52469U 22049U   22152.25001157 -.00087094  00000+0 -62009-3 0  9995
2 52469  53.2150 138.4040 0002213  21.4068 299.1709 15.73289332  4232
STARLINK-3859           
1 52470U 22049V   22151.91667824  .00061310  00000+0  43737-3 0  9996
2 52470  53.2149 140.0466 0001852  19.0357 215.0867 15.73236657  1304
STARLINK-3862           
1 52471U 22049W   22151.91667824  .00008360  00000+0  63861-4 0  9994
2 52471  53.2155 140.0517 0001934  23.0930 209.1881 15.73224625  1304
STARLINK-3881           
1 52472U 22049X   22152.25001157 -.00071734  00000+0 -50924-3 0  9996
2 52472  53.2146 138.3953 0002283  28.5506 295.8018 15.73278889  4236
STARLINK-3879           
1 52473U 22049Y   22152.25001157 -.00081613  00000+0 -58060-3 0  9993
2 52473  53.2154 138.4012 0002190  25.3754 297.1063 15.73281694  4233
STARLINK-3855           
1 52474U 22049Z   22151.91667824  .00011193  00000+0  83994-4 0  9994
2 52474  53.2144 140.0398 0002023  20.9344 215.7556 15.73219317  1301
STARLINK-3882           
1 52475U 22049AA  22152.25001157 -.00049620  00000+0 -35015-3 0  9992
2 52475  53.2149 138.3974 0002265  16.6597 307.0420 15.73266653  4232
STARLINK-3835           
1 52476U 22049AB  22152.25001157 -.00085425  00000+0 -60779-3 0  9991
2 52476  53.2148 138.3904 0002247  20.7602 306.1262 15.73297340  4239
STARLINK-3860           
1 52477U 22049AC  22152.25001157 -.00093789  00000+0 -66843-3 0  9992
2 52477  53.2150 138.3955 0002305  18.4294 306.5445 15.73295700  4230
STARLINK-3825           
1 52478U 22049AD  22151.91667824  .00055027  00000+0  39357-3 0  9995
2 52478  53.2144 140.0363 0001950  17.0800 221.5149 15.73219994  1303
STARLINK-3878           
1 52479U 22049AE  22151.91667824  .00004752  00000+0  38177-4 0  9995
2 52479  53.2147 140.0335 0002017  29.4945 210.9362 15.73253826  1309
STARLINK-3839           
1 52480U 22049AF  22152.25001157 -.00081038  00000+0 -57645-3 0  9990
2 52480  53.2144 138.3863 0002356  25.7955 302.9631 15.73280674  4237
STARLINK-3842           
1 52481U 22049AG  22152.25001157  .00029771  00000+0  21550-3 0  9991
2 52481  53.2148 138.3926 0002310  24.7759 301.4234 15.73229921  4234
STARLINK-3813           
1 52482U 22049AH  22152.25001157 -.00055012  00000+0 -38870-3 0  9994
2 52482  53.2144 138.3808 0002067  22.0048 309.2785 15.73281160  4242
STARLINK-3875           
1 52483U 22049AJ  22152.25001157 -.00067806  00000+0 -48103-3 0  9999
2 52483  53.2144 138.3871 0002087  25.1366 303.0213 15.73272885  4233
STARLINK-3887           
1 52484U 22049AK  22151.91667824  .00024905  00000+0  18115-3 0  9992
2 52484  53.2155 140.0280 0001939  34.3232 208.6967 15.73224589  1308
STARLINK-3913           
1 52485U 22049AL  22152.25001157 -.00078936  00000+0 -56130-3 0  9996
2 52485  53.2146 138.3825 0002188  20.1451 310.5128 15.73279007  4239
STARLINK-3918           
1 52486U 22049AM  22152.25001157 -.00075785  00000+0 -53807-3 0  9994
2 52486  53.2158 138.3766 0002133  24.0771 309.0565 15.73298360  4247
STARLINK-3902           
1 52487U 22049AN  22152.25001157 -.00054409  00000+0 -38422-3 0  9991
2 52487  53.2145 138.3834 0002238  22.6071 307.4003 15.73289276  4237
STARLINK-3892           
1 52488U 22049AP  22152.25001157  .00029588  00000+0  21457-3 0  9990
2 52488  53.2161 138.3743 0002210  31.8195 302.5691 15.73190652  4243
STARLINK-3923           
1 52489U 22049AQ  22152.25001157 -.00045972  00000+0 -32398-3 0  9994
2 52489  53.2147 138.3793 0002053  22.1150 310.4372 15.73264560  4246
STARLINK-3914           
1 52490U 22049AR  22152.25001157  .00028259  00000+0  20525-3 0  9992
2 52490  53.2163 138.3720 0002192  31.8864 303.7324 15.73180255  4249
STARLINK-3908           
1 52491U 22049AS  22152.25001157  .00008464  00000+0  64640-4 0  9996
2 52491  53.2146 138.3764 0002299  24.8292 309.0516 15.73211451  4249
STARLINK-3916           
1 52492U 22049AT  22151.91667824 -.00025115  00000+0 -17462-3 0  9991
2 52492  53.2156 140.0162 0001982  39.1776 208.8425 15.73255541  1304
STARLINK-3883           
1 52493U 22049AU  22152.25001157 -.00040286  00000+0 -28329-3 0  9991
2 52493  53.2145 138.3735 0002144  29.9485 305.1215 15.73254420  4243
STARLINK-3857           
1 52494U 22049AV  22151.91667824  .00005586  00000+0  44116-4 0  9998
2 52494  53.2153 140.0107 0001859  20.0632 230.4706 15.73241832  1306
STARLINK-3905           
1 52495U 22049AW  22152.25001157  .00019239  00000+0  14100-3 0  9997
2 52495  53.2159 138.3706 0002321  28.6372 307.6663 15.73230266  4242
STARLINK-3871           
1 52496U 22049AX  22151.91667824 -.00690707  00000+0 -46981-2 0  9997
2 52496  53.2173 138.1640 0001109  62.7486   7.9215 15.76105680  4058
STARLINK-3884           
1 52497U 22049AY  22152.25001157 -.00042597  00000+0 -29997-3 0  9994
2 52497  53.2155 138.3678 0002130  31.1177 306.5179 15.73247507  4244
STARLINK-3925           
1 52498U 22049AZ  22152.25001157 -.00081544  00000+0 -57977-3 0  9999
2 52498  53.2158 138.3622 0002047  21.7931 318.2937 15.73295803  4241
STARLINK-3894           
1 52499U 22049BA  22152.25001157 -.00018426  00000+0 -12681-3 0  9992
2 52499  53.2157 138.3660 0002023  18.9168 319.2971 15.73259011  4247
STARLINK-3866           
1 52500U 22049BB  22152.25001157 -.00055343  00000+0 -39091-3 0  9998
2 52500  53.2153 138.3613 0002279  22.3868 318.3323 15.73290327  4249
STARLINK-3907           
1 52501U 22049BC  22151.91667824 -.00024033  00000+0 -16685-3 0  9996
2 52501  53.2159 140.0131 0002060  26.8146 223.0973 15.73259851  1301
STARLINK-3912           
1 52502U 22049BD  22151.91667824 -.00025125  00000+0 -17471-3 0  9994
2 52502  53.2145 140.0053 0001721  40.5327 212.5411 15.73253796  1309
STARLINK-3861           
1 52503U 22049BE  22151.91667824  .00081821  00000+0  58123-3 0  9997
2 52503  53.2145 140.0066 0001813  25.7606 226.6186 15.73219546  1301
FALCON 9 DEB            
1 52504U 22049BF  22151.26331464  .00236940  33971-4  50365-3 0  9996
2 52504  53.2027 140.5553 0011576 356.4338   3.6608 15.98157345  3961
FALCON 9 DEB            
1 52505U 22049BG  22152.12765545  .00298618  48586-4  56984-3 0  9995
2 52505  53.2015 135.9851 0011274  10.3483 349.7778 16.00013185  4106
FALCON 9 DEB            
1 52506U 22049BH  22151.97932351  .00389012  78044-4  63936-3 0  9995
2 52506  53.1998 136.4764 0006732  11.0368 349.0811 16.02615490  4085
FALCON 9 DEB            
1 52507U 22049BJ  22152.15769262  .00442705  10048-3  66904-3 0  9992
2 52507  53.2048 135.4614 0008245  18.9334 341.2004 16.03978995  4111
TIANZHOU-4              
1 52509U 22050A   22151.56338549  .00198545  00000+0  23444-2 0  9994
2 52509  41.4662 319.9711 0003596 188.8623 241.5094 15.59862612 62172
2022-050B               
1 52510U 22050B   22150.70386563  .28512381  83776-5  33163-3 0  9995
2 52510  41.4537 317.2553 0009333 298.8573 128.5828 16.49408938  3341
STARLINK-3951           
1 52533U 22051A   22152.25001157  .00262643  00000+0  18626-2 0  9998
2 52533  53.2168 202.4322 0003450 302.4544 287.4607 15.72626298  3425
STARLINK-3952           
1 52534U 22051B   22151.91667824 -.00715775  00000+0 -57908-2 0  9997
2 52534  53.2175 204.0591 0002569  15.1350 125.3459 15.72176826  1300
STARLINK-3958           
1 52535U 22051C   22151.91667824 -.00715873  00000+0 -57876-2 0  9991
2 52535  53.2175 204.0587 0003707   4.2083 136.8793 15.72181452  1302
STARLINK-3964           
1 52536U 22051D   22151.91667824 -.00715743  00000+0 -57877-2 0  9999
2 52536  53.2175 204.0574 0002312  19.3421 122.9592 15.72190598  1307
STARLINK-3897           
1 52537U 22051E   22151.91667824 -.00715785  00000+0 -57861-2 0  9999
2 52537  53.2175 204.0571 0002666  14.1953 128.7125 15.72195245  1300
STARLINK-3933           
1 52538U 22051F   22151.91667824 -.00715786  00000+0 -57846-2 0  9994
2 52538  53.2175 204.0566 0002320  19.5012 124.6198 15.72204584  1309
STARLINK-3757           
1 52539U 22051G   22151.91667824 -.00715828  00000+0 -57858-2 0  9995
2 52539  53.2175 204.0568 0002458  16.8594 126.6550 15.72199934  1305
STARLINK-3940           
1 52540U 22051H   22151.91667824 -.00715977  00000+0 -57833-2 0  9995
2 52540  53.2175 204.0546 0002530  15.8698 130.6575 15.72214677  1302
STARLINK-3845           
1 52541U 22051J   22151.91667824 -.00838205  00000+0 -11571-1 0  9994
2 52541  53.2176 204.3919 0001532  39.2755 261.1710 15.58936570  3373
STARLINK-3937           
1 52542U 22051K   22151.91667824 -.00717067  00000+0 -57909-2 0  9993
2 52542  53.2175 204.0543 0002805  11.4801 135.6534 15.72219927  1307
STARLINK-3926           
1 52543U 22051L   22151.91667824 -.00715846  00000+0 -57844-2 0  9995
2 52543  53.2175 204.0551 0002559  15.7051 129.6092 15.72205295  1302
STARLINK-3944           
1 52544U 22051M   22151.91667824 -.00838236  00000+0 -11575-1 0  9995
2 52544  53.2176 204.4034 0001471  41.4262 262.3698 15.58929059  1308
STARLINK-3939           
1 52545U 22051N   22151.91667824 -.00715920  00000+0 -57838-2 0  9993
2 52545  53.2175 204.0548 0002597  15.3421 130.5787 15.72209986  1302
STARLINK-3948           
1 52546U 22051P   22151.91667824 -.00716026  00000+0 -57824-2 0  9997
2 52546  53.2175 204.0511 0002456  17.5222 131.9982 15.72220746  1309
STARLINK-3869           
1 52547U 22051Q   22151.91667824 -.00838314  00000+0 -11578-1 0  9998
2 52547  53.2176 204.3957 0001630  34.3088 268.7401 15.58923698  3372
STARLINK-3931           
1 52548U 22051R   22151.91667824 -.00716140  00000+0 -57780-2 0  9997
2 52548  53.2176 204.0489 0002311  19.4631 133.0886 15.72243938  1305
STARLINK-3935           
1 52549U 22051S   22151.91667824 -.00715959  00000+0 -57835-2 0  9996
2 52549  53.2175 204.0516 0002217  21.2314 127.6826 15.72216117  1302
